[
    {
        "CCSDS_OMM_VERS": "3.0",
        "COMMENT": "GENERATED VIA SPACE-TRACK.ORG API",
        "CREATION_DATE": "2025-05-04T02:26:54",
        "ORIGINATOR": "18 SPCS",
        "OBJECT_NAME": "NAVSTAR 81 (USA 319)",
        "OBJECT_ID": "2021-054A",
        "CENTER_NAME": "EARTH",
        "REF_FRAME": "TEME",
        "TIME_SYSTEM": "UTC",
        "MEAN_ELEMENT_THEORY": "SGP4",
        "EPOCH": "2025-05-03T16:28:34.457088",
        "MEAN_MOTION": "2.00566561",
        "ECCENTRICITY": "0.00188890",
        "INCLINATION": "55.3249",
        "RA_OF_ASC_NODE": "348.8983",
        "ARG_OF_PERICENTER": "227.9616",
        "MEAN_ANOMALY": "140.7336",
        "EPHEMERIS_TYPE": "0",
        "CLASSIFICATION_TYPE": "U",
        "NORAD_CAT_ID": "48859",
        "ELEMENT_SET_NO": "999",
        "REV_AT_EPOCH": "2854",
        "BSTAR": "0.00000000000000",
        "MEAN_MOTION_DOT": "-0.00000101",
        "MEAN_MOTION_DDOT": "0.0000000000000",
        "SEMIMAJOR_AXIS": "26560.087",
        "PERIOD": "717.966",
        "APOAPSIS": "20232.121",
        "PERIAPSIS": "20131.782",
        "OBJECT_TYPE": "PAYLOAD",
        "RCS_SIZE": "LARGE",
        "COUNTRY_CODE": "US",
        "LAUNCH_DATE": "2021-06-17",
        "SITE": "AFETR",
        "DECAY_DATE": null,
        "FILE": "4718307",
        "GP_ID": "286802605",
        "TLE_LINE0": "0 NAVSTAR 81 (USA 319)",
        "TLE_LINE1": "1 48859U 21054A   25123.68650992 -.00000101  00000-0  00000-0 0  9997",
        "TLE_LINE2": "2 48859  55.3249 348.8983 0018889 227.9616 140.7336  2.00566561 28548"
    }
]